[{"OBJECT_NAME":"OBJECT V","OBJECT_ID":"2023-085V","EPOCH":"2026-03-09T21:44:00.165408","MEAN_MOTION":15.30745852,"ECCENTRICITY":0.00069081,"INCLINATION":97.4843,"RA_OF_ASC_NODE":179.3833,"ARG_OF_PERICENTER":71.0503,"MEAN_ANOMALY":289.1485,"EPHEMERIS_TYPE":0,"CLASSIFICATION_TYPE":"U","NORAD_CAT_ID":57023,"ELEMENT_SET_NO":999,"REV_AT_EPOCH":15149,"BSTAR":0.00067780507,"MEAN_MOTION_DOT":0.00020109,"MEAN_MOTION_DDOT":0},{"OBJECT_NAME":"STARLINK-31185","OBJECT_ID":"2024-012B","EPOCH":"2026-03-09T23:09:11.113344","MEAN_MOTION":15.2757221,"ECCENTRICITY":5.215e-5,"INCLINATION":43.0016,"RA_OF_ASC_NODE":164.0753,"ARG_OF_PERICENTER":331.1328,"MEAN_ANOMALY":28.9495,"EPHEMERIS_TYPE":0,"CLASSIFICATION_TYPE":"U","NORAD_CAT_ID":58788,"ELEMENT_SET_NO":999,"REV_AT_EPOCH":12127,"BSTAR":5.279847e-6,"MEAN_MOTION_DOT":-1.16e-6,"MEAN_MOTION_DDOT":0}]
